APRIZESAT 2             
1 28366U 04025A   23007.04297401  .00000203  00000+0  77393-4 0  9992
2 28366  98.1356 230.4644 0108658  82.7024 278.6499 14.36892757971052
SAUDICOMSAT 1           
1 28369U 04025D   23007.15071685  .00000576  00000+0  15030-3 0  9993
2 28369  98.4701 335.3897 0032150 271.4926  88.2587 14.52968297981424
SAUDICOMSAT 2           
1 28370U 04025E   23007.14572427  .00000415  00000+0  12226-3 0  9990
2 28370  98.5620 334.9137 0058659 104.5117 256.2592 14.47844913978105
APRIZESAT 1             
1 28372U 04025G   23007.18940353  .00000463  00000+0  13026-3 0  9995
2 28372  98.5232 334.9649 0046487  17.2393 343.0367 14.49928336979623
NANOSAT-1               
1 28493U 04049B   23007.00400668  .00001204  00000+0  18958-3 0  9999
2 28493  98.1184 113.0410 0004698  19.1811 340.9573 14.74337375969859
SAUDICOMSAT 7           
1 31119U 07012C   23007.07305625  .00000646  00000+0  13436-3 0  9990
2 31119  98.2105 316.2918 0059614 172.4920 187.7187 14.62329852838462
SAUDICOMSAT 6           
1 31121U 07012E   23007.26564387  .00000897  00000+0  19400-3 0  9991
2 31121  98.2496 311.7248 0074714 279.0034  80.2715 14.59097286836665
SAUDICOMSAT 5           
1 31124U 07012H   23007.10410778  .00000764  00000+0  15205-3 0  9993
2 31124  98.1799 317.7210 0052246 117.2258 243.4281 14.64072156839383
SAUDICOMSAT 3           
1 31125U 07012J   23007.11257888  .00001042  00000+0  19687-3 0  9994
2 31125  98.1459 318.9841 0043979  62.8297 297.7380 14.65932863840342
SAUDICOMSAT 4           
1 31127U 07012L   23007.07970717  .00000698  00000+0  14854-3 0  9991
2 31127  98.2327 314.7337 0066491 223.0081 136.5912 14.60836693837604
APRIZESAT 4             
1 35684U 09041D   23006.83633814  .00000897  00000+0  12424-3 0  9996
2 35684  98.3003  32.3734 0047718  60.0104 300.5830 14.79907560725147
APRIZESAT 3             
1 35686U 09041F   23007.50624746  .00001929  00000+0  20552-3 0  9995
2 35686  98.1013 103.6934 0070335 238.8085 120.6224 14.88376714729004
AISSAT 1                
1 36797U 10035C   23007.49572206  .00002818  00000+0  31553-3 0  9996
2 36797  98.2321 204.0655 0009819 222.2769 137.7690 14.87708250676901
S-NET D                 
1 43186U 18014G   23007.45367391  .00003662  00000+0  30807-3 0  9993
2 43186  97.6467 274.2238 0010475 336.4384  23.6358 14.98833777269460
S-NET B                 
1 43187U 18014H   23006.98681768  .00003434  00000+0  28921-3 0  9999
2 43187  97.6464 273.7070 0010496 337.8775  22.1994 14.98826372269393
S-NET A                 
1 43188U 18014J   23007.45443097  .00003679  00000+0  30948-3 0  9997
2 43188  97.6468 274.2415 0010439 336.2852  23.7888 14.98830834269468
S-NET C                 
1 43189U 18014K   23007.45562244  .00003718  00000+0  31276-3 0  9993
2 43189  97.6461 274.1522 0010359 335.8680  24.2056 14.98825046268017
SALSAT                  
1 46495U 20068K   23007.07944377  .00004185  00000+0  29351-3 0  9997
2 46495  97.7525 313.8115 0014999 311.3523  48.6413 15.05655969124810
